GOES 19                 
1 60133U 24119A   26116.90688750 -.00000260  00000+0  00000+0 0  9996
2 60133   0.0266  67.9640 0000641  17.4109  20.8049  1.00273156  6457
FENGYUN 3H              
1 65815U 25219A   26116.81204081  .00000058  00000+0  47578-4 0  9991
2 65815  98.6741  58.5886 0000838 106.2115 253.9154 14.19944046 30090
