[{"OBJECT_NAME":"GOES 19","OBJECT_ID":"2024-119A","EPOCH":"2026-04-26T21:45:55.080000","MEAN_MOTION":1.00273156,"ECCENTRICITY":6.414e-5,"INCLINATION":0.0266,"RA_OF_ASC_NODE":67.964,"ARG_OF_PERICENTER":17.4109,"MEAN_ANOMALY":20.8049,"EPHEMERIS_TYPE":0,"CLASSIFICATION_TYPE":"U","NORAD_CAT_ID":60133,"ELEMENT_SET_NO":999,"REV_AT_EPOCH":645,"BSTAR":0,"MEAN_MOTION_DOT":-2.6e-6,"MEAN_MOTION_DDOT":0},{"OBJECT_NAME":"FENGYUN 3H","OBJECT_ID":"2025-219A","EPOCH":"2026-04-26T19:29:20.325984","MEAN_MOTION":14.19944046,"ECCENTRICITY":8.389e-5,"INCLINATION":98.6741,"RA_OF_ASC_NODE":58.5886,"ARG_OF_PERICENTER":106.2115,"MEAN_ANOMALY":253.9154,"EPHEMERIS_TYPE":0,"CLASSIFICATION_TYPE":"U","NORAD_CAT_ID":65815,"ELEMENT_SET_NO":999,"REV_AT_EPOCH":3009,"BSTAR":4.7577863e-5,"MEAN_MOTION_DOT":5.8e-7,"MEAN_MOTION_DDOT":0}]
